MMSATS-1                
1 47976U 98067SJ  21163.60492087  .00003602  00000-0  71515-4 0  9996
2 47976  51.6473   5.0504 0003231  78.4119 281.7233 15.49810518 12791
BCCSAT-1                
1 48041U 21022AK  21163.51315617  .00000523  00000-0  39509-4 0  9996
2 48041  97.5596  65.8711 0015505 324.9522 210.0006 15.06508629 11105
